{
    "links": {
        "self": "http://www.neowsapp.com/rest/v1/neo/3710917?api_key=iIulBulltgU6a56xZRHN4H3l9WmuAYTsLGpBGhQ2"
    },
    "id": "3710917",
    "neo_reference_id": "3710917",
    "name": "(2015 DN53)",
    "designation": "2015 DN53",
    "nasa_jpl_url": "http://ssd.jpl.nasa.gov/sbdb.cgi?sstr=3710917",
    "absolute_magnitude_h": 24.8,
    "estimated_diameter": {
        "kilometers": {
            "estimated_diameter_min": 0.0291443905,
            "estimated_diameter_max": 0.0651688382
        },
        "meters": {
            "estimated_diameter_min": 29.1443904535,
            "estimated_diameter_max": 65.1688382168
        },
        "miles": {
            "estimated_diameter_min": 0.018109479,
            "estimated_diameter_max": 0.0404940262
        },
        "feet": {
            "estimated_diameter_min": 95.6180819754,
            "estimated_diameter_max": 213.8085311752
        }
    },
    "is_potentially_hazardous_asteroid": false,
    "close_approach_data": [
        {
            "close_approach_date": "2015-03-01",
            "close_approach_date_full": "2015-Mar-01 09:22",
            "epoch_date_close_approach": 1425201720000,
            "relative_velocity": {
                "kilometers_per_second": "7.5180997692",
                "kilometers_per_hour": "27065.1591692172",
                "miles_per_hour": "16817.2373737839"
            },
            "miss_distance": {
                "astronomical": "0.1015726076",
                "lunar": "39.5117443564",
                "kilometers": "15195045.747305812",
                "miles": "9441763.6069797256"
            },
            "orbiting_body": "Earth"
        }
    ],
    "orbital_data": {
        "orbit_id": "4",
        "orbit_determination_date": "2019-07-18 07:27:16",
        "first_observation_date": "2015-02-16",
        "last_observation_date": "2015-02-19",
        "data_arc_in_days": 3,
        "observations_used": 13,
        "orbit_uncertainty": "8",
        "minimum_orbit_intersection": ".0877152",
        "jupiter_tisserand_invariant": "3.382",
        "epoch_osculation": "2457070.5",
        "eccentricity": ".5365022804324719",
        "semi_major_axis": "2.297252956808002",
        "inclination": "5.287904151621921",
        "ascending_node_longitude": "138.5347177212758",
        "orbital_period": "1271.779017973196",
        "perihelion_distance": "1.06477150675027",
        "perihelion_argument": "35.90771579900476",
        "aphelion_distance": "3.529734406865735",
        "perihelion_time": "2457093.308975832556",
        "mean_anomaly": "353.5435078078217",
        "mean_motion": ".2830680447722149",
        "equinox": "J2000",
        "orbit_class": {
            "orbit_class_type": "AMO",
            "orbit_class_description": "Near-Earth asteroid orbits similar to that of 1221 Amor",
            "orbit_class_range": "1.017 AU < q (perihelion) < 1.3 AU"
        }
    },
    "is_sentry_object": false
}